{
"type": "FeatureCollection",
"crs": { "type": "name", "properties": { "name": "urn:ogc:def:crs:OGC:1.3:CRS84" } },
                                                                                
"features": [{
 "type": "Feature", "properties": { "NAME": "Art Basel", "TEL": "", "URL": "artbasel.com", "ADDRESS1": "Miami Beach Convention Center", "ADDRESS2": "1901 Convention Center Dr", "CITY": "Miami Beach", "ZIP":33139 }, "geometry": { "type": "Point", "coordinates": [ 25.794993, -80.133486 ] } },
{ "type": "Feature", "properties": { "NAME": "Art on Paper", "TEL": "", "URL": "http://thepaperfair.com", "ADDRESS1": "Deauville Beach Resort", "ADDRESS2": "6701 Collins Avenue", "CITY": "Miami Beach", "ZIP":33139 }, "geometry": { "type": "Point", "coordinates": [ 25.850804, -80.119767 ] } },
{ "type": "Feature", "properties": { "NAME": "Aqua Art Miami    11th Edition", "TEL": "", "URL": "http://www.aquaartmiami.com/", "ADDRESS1": "Aqua Hotel", "ADDRESS2": "1530 Collins Avenue", "CITY": "Miami Beach", "ZIP":33139 }, "geometry": { "type": "Point", "coordinates": [ 25.788248, -80.130828 ] } },
{ "type": "Feature", "properties": { "NAME": "Design Miami ", "TEL": "", "URL": "http://miami2016.designmiami.com/", "ADDRESS1": "Meridian Avenue & 19th Street", "ADDRESS2": "", "CITY": "Miami Beach", "ZIP":33139 }, "geometry": { "type": "Point", "coordinates": [ 25.794904, -80.136683 ] } },
{ "type": "Feature", "properties": { "NAME": "Fridge Art Fair", "TEL": "", "URL": "http://www.fridgeartfair.com/", "ADDRESS1": "Holiday Inn Miami Beach", "ADDRESS2": "4333 Collins Avenue", "CITY": "Miami Beach", "ZIP":33139 }, "geometry": { "type": "Point", "coordinates": [ 25.814994, -80.122251 ] } },
{ "type": "Feature", "properties": { "NAME": "INK Miami Art Fair", "TEL": "", "URL": "http://inkartfair.com/", "ADDRESS1": "Suites of Dorchester", "ADDRESS2": "1850 Collins Avenue", "CITY": "Miami Beach", "ZIP":33139 }, "geometry": { "type": "Point", "coordinates": [ 25.794877, -80.129838 ] } },
{ "type": "Feature", "properties": { "NAME": "Miami Project", "TEL": "", "URL": "http://miami-project.com/", "ADDRESS1": "", "ADDRESS2": "6625 Indian Creek Drive", "CITY": "Miami Beach", "ZIP":33139 }, "geometry": { "type": "Point", "coordinates": [ 25.850164, -80.121117 ] } },
{ "type": "Feature", "properties": { "NAME": "NADA / New Art Dealears Alliance", "TEL": "", "URL": "https://www.newartdealers.org/", "ADDRESS1": "Deauville Beach Resort", "ADDRESS2": "6701 Collins Avenue", "CITY": "Miami Beach", "ZIP":33139 }, "geometry": { "type": "Point", "coordinates": [ 25.850804, -80.119767 ] } },
{ "type": "Feature", "properties": { "NAME": "Pulse  Contemporary Art Fair", "TEL": "", "URL": "http://pulse-art.com/", "ADDRESS1": "Indian Beach Park", "ADDRESS2": "4601 Collins Avenue", "CITY": "Miami Beach", "ZIP":33139 }, "geometry": { "type": "Point", "coordinates": [ 25.821299, -80.121591 ] } },
{ "type": "Feature", "properties": { "NAME": "SCOPE - Miami Beach", "TEL": "", "URL": "https://scope-art.com/", "ADDRESS1": "", "ADDRESS2": "801 Ocean Drive", "CITY": "Miami Beach", "ZIP":33139 }, "geometry": { "type": "Point", "coordinates": [ 25.777959, -80.131186 ] } },
{ "type": "Feature", "properties": { "NAME": "UNTITLED", "TEL": "", "URL": "https://art-untitled.com/", "ADDRESS1": "", "ADDRESS2": "Ocean Drive & 12th Street", "CITY": "Miami Beach", "ZIP":33139 }, "geometry": { "type": "Point", "coordinates": [ 25.782685, -80.130142 ] } },
{ "type": "Feature", "properties": { "NAME": "SATELLITE", "TEL": "", "URL": "http://satellite-show.com/", "ADDRESS1": "Parisian Hotel", "ADDRESS2": "1510 Collins Avenue", "CITY": "Miami Beach", "ZIP":33139 }, "geometry": { "type": "Point", "coordinates": [ 25.787912, -80.130849 ] } },
{ "type": "Feature", "properties": { "NAME": "Wolfsonian Museum", "TEL": "", "URL": "http://www.wolfsonian.org/", "ADDRESS1": "", "ADDRESS2": "1001 Washington Avenue", "CITY": "Miami Beach", "ZIP":33139 }, "geometry": { "type": "Point", "coordinates": [ 25.780930, -80.13246 ] } },
{ "type": "Feature", "properties": { "NAME": "World Erotic Art Museum", "TEL": "", "URL": "http://weam.com/", "ADDRESS1": "", "ADDRESS2": "1205 Washington Avenue", "CITY": "Miami Beach", "ZIP":33139 }, "geometry": { "type": "Point", "coordinates": [ 25.783279, -80.132091 ] } },
{ "type": "Feature", "properties": { "NAME": "Jewish Museum of Florida", "TEL": "", "URL": "http://jmof.fiu.edu/", "ADDRESS1": "", "ADDRESS2": "301 Washington Avenue", "CITY": "Miami Beach", "ZIP":33139 }, "geometry": { "type": "Point", "coordinates": [ 25.772495, -80.134237 ] } },
{ "type": "Feature", "properties": { "NAME": "All Soul's Episcopal Center", "TEL": "", "URL": "www.allsoulsmb.org", "ADDRESS1": "", "ADDRESS2": "4025 Pine Tree Drive", "CITY": "Miami Beach", "ZIP":33139 }, "geometry": { "type": "Point", "coordinates": [ 25.813047, -80.126049 ] } }
]
}
